{"type": "FeatureCollection", "features": [ {"type": "Feature", "properties": {"norad_id": 66977, "name": "STARLINK-35770", "group": "last-30-days", "lat": -22.48034427524463, "lon": 100.60900054574786, "alt_km": 320.15074791207826, "timestamp": "2025-12-19T06:59:42.652704+00:00", "meta": {"OBJECT_NAME": "STARLINK-35770", "OBJECT_ID": "2025-288U", "EPOCH": "2025-12-18T22:00:00.999936", "MEAN_MOTION": 15.85223429, "ECCENTRICITY": 0.00018093, "INCLINATION": 43.0017, "RA_OF_ASC_NODE": 129.2789, "ARG_OF_PERICENTER": 278.6189, "MEAN_ANOMALY": 66.6384, "EPHEMERIS_TYPE": 0, "CLASSIFICATION_TYPE": "U", "NORAD_CAT_ID": 66977, "ELEMENT_SET_NO": 999, "REV_AT_EPOCH": 282, "BSTAR": -0.0065033605, "MEAN_MOTION_DOT": -0.01392933, "MEAN_MOTION_DDOT": 0}, "tle": {"line1": "1 66977U 25288U   25352.91667824 -.01392933  00000+0 -65034-2 0  9991", "line2": "2 66977  43.0017 129.2789 0001809 278.6189  66.6384 15.85223429  2825"}}, "geometry": {"type": "Point", "coordinates": [100.60900054574786, -22.48034427524463]}}, {"type": "Feature", "properties": {"norad_id": 66978, "name": "STARLINK-35787", "group": "last-30-days", "lat": -18.400945597929308, "lon": 106.04006437253689, "alt_km": 319.79697899462826, "timestamp": "2025-12-19T06:59:42.652716+00:00", "meta": {"OBJECT_NAME": "STARLINK-35787", "OBJECT_ID": "2025-288V", "EPOCH": "2025-12-18T22:00:00.999936", "MEAN_MOTION": 15.85254525, "ECCENTRICITY": 0.00018519, "INCLINATION": 43.0018, "RA_OF_ASC_NODE": 129.2623, "ARG_OF_PERICENTER": 282.1631, "MEAN_ANOMALY": 69.6024, "EPHEMERIS_TYPE": 0, "CLASSIFICATION_TYPE": "U", "NORAD_CAT_ID": 66978, "ELEMENT_SET_NO": 999, "REV_AT_EPOCH": 282, "BSTAR": -0.0066068988, "MEAN_MOTION_DOT": -0.01414077, "MEAN_MOTION_DDOT": 0}, "tle": {"line1": "1 66978U 25288V   25352.91667824 -.01414077  00000+0 -66069-2 0  9995", "line2": "2 66978  43.0018 129.2623 0001851 282.1631  69.6024 15.85254525  2828"}}, "geometry": {"type": "Point", "coordinates": [106.04006437253689, -18.400945597929308]}}, {"type": "Feature", "properties": {"norad_id": 66979, "name": "STARLINK-36107", "group": "last-30-days", "lat": -16.6980014484444, "lon": 108.17080880137802, "alt_km": 319.81747093266495, "timestamp": "2025-12-19T06:59:42.652732+00:00", "meta": {"OBJECT_NAME": "STARLINK-36107", "OBJECT_ID": "2025-288W", "EPOCH": "2025-12-18T22:00:00.999936", "MEAN_MOTION": 15.85236748, "ECCENTRICITY": 0.0001763, "INCLINATION": 43.0017, "RA_OF_ASC_NODE": 129.2556, "ARG_OF_PERICENTER": 281.2672, "MEAN_ANOMALY": 73.1844, "EPHEMERIS_TYPE": 0, "CLASSIFICATION_TYPE": "U", "NORAD_CAT_ID": 66979, "ELEMENT_SET_NO": 999, "REV_AT_EPOCH": 282, "BSTAR": -0.0066546597, "MEAN_MOTION_DOT": -0.0145041, "MEAN_MOTION_DDOT": 0}, "tle": {"line1": "1 66979U 25288W   25352.91667824 -.01450410  00000+0 -66547-2 0  9998", "line2": "2 66979  43.0017 129.2556 0001763 281.2672  73.1844 15.85236748  2827"}}, "geometry": {"type": "Point", "coordinates": [108.17080880137802, -16.6980014484444]}}, {"type": "Feature", "properties": {"norad_id": 66980, "name": "STARLINK-36086", "group": "last-30-days", "lat": -15.204250722369606, "lon": 109.9866582810272, "alt_km": 319.7681087362598, "timestamp": "2025-12-19T06:59:42.652744+00:00", "meta": {"OBJECT_NAME": "STARLINK-36086", "OBJECT_ID": "2025-288X", "EPOCH": "2025-12-18T22:00:00.999936", "MEAN_MOTION": 15.85241547, "ECCENTRICITY": 0.00017226, "INCLINATION": 43.0017, "RA_OF_ASC_NODE": 129.2495, "ARG_OF_PERICENTER": 279.9607, "MEAN_ANOMALY": 76.792, "EPHEMERIS_TYPE": 0, "CLASSIFICATION_TYPE": "U", "NORAD_CAT_ID": 66980, "ELEMENT_SET_NO": 999, "REV_AT_EPOCH": 282, "BSTAR": -0.0066932428, "MEAN_MOTION_DOT": -0.01458142, "MEAN_MOTION_DDOT": 0}, "tle": {"line1": "1 66980U 25288X   25352.91667824 -.01458142  00000+0 -66932-2 0  9998", "line2": "2 66980  43.0017 129.2495 0001722 279.9607  76.7920 15.85241547  2825"}}, "geometry": {"type": "Point", "coordinates": [109.9866582810272, -15.204250722369606]}}, {"type": "Feature", "properties": {"norad_id": 66981, "name": "STARLINK-36142", "group": "last-30-days", "lat": -13.784955964271102, "lon": 111.67279827428376, "alt_km": 319.6497677265561, "timestamp": "2025-12-19T06:59:42.652754+00:00", "meta": {"OBJECT_NAME": "STARLINK-36142", "OBJECT_ID": "2025-288Y", "EPOCH": "2025-12-18T22:00:00.999936", "MEAN_MOTION": 15.85251826, "ECCENTRICITY": 0.00018041, "INCLINATION": 43.0018, "RA_OF_ASC_NODE": 129.2442, "ARG_OF_PERICENTER": 278.9299, "MEAN_ANOMALY": 79.9794, "EPHEMERIS_TYPE": 0, "CLASSIFICATION_TYPE": "U", "NORAD_CAT_ID": 66981, "ELEMENT_SET_NO": 999, "REV_AT_EPOCH": 282, "BSTAR": -0.0067234376, "MEAN_MOTION_DOT": -0.01464686, "MEAN_MOTION_DDOT": 0}, "tle": {"line1": "1 66981U 25288Y   25352.91667824 -.01464686  00000+0 -67234-2 0  9995", "line2": "2 66981  43.0018 129.2442 0001804 278.9299  79.9794 15.85251826  2821"}}, "geometry": {"type": "Point", "coordinates": [111.67279827428376, -13.784955964271102]}}, {"type": "Feature", "properties": {"norad_id": 66982, "name": "STARLINK-36113", "group": "last-30-days", "lat": -12.314639662852484, "lon": 113.38341693020766, "alt_km": 319.501371090485, "timestamp": "2025-12-19T06:59:42.652764+00:00", "meta": {"OBJECT_NAME": "STARLINK-36113", "OBJECT_ID": "2025-288Z", "EPOCH": "2025-12-18T22:00:00.999936", "MEAN_MOTION": 15.85264452, "ECCENTRICITY": 0.00018625, "INCLINATION": 43.0015, "RA_OF_ASC_NODE": 129.2383, "ARG_OF_PERICENTER": 279.9181, "MEAN_ANOMALY": 81.2093, "EPHEMERIS_TYPE": 0, "CLASSIFICATION_TYPE": "U", "NORAD_CAT_ID": 66982, "ELEMENT_SET_NO": 999, "REV_AT_EPOCH": 282, "BSTAR": -0.0067904197, "MEAN_MOTION_DOT": -0.01478458, "MEAN_MOTION_DDOT": 0}, "tle": {"line1": "1 66982U 25288Z   25352.91667824 -.01478458  00000+0 -67904-2 0  9992", "line2": "2 66982  43.0015 129.2383 0001862 279.9181  81.2093 15.85264452  2825"}}, "geometry": {"type": "Point", "coordinates": [113.38341693020766, -12.314639662852484]}}, {"type": "Feature", "properties": {"norad_id": 66983, "name": "STARLINK-36145", "group": "last-30-days", "lat": -9.29676100792564, "lon": 116.80293502418678, "alt_km": 319.2213929852214, "timestamp": "2025-12-19T06:59:42.652774+00:00", "meta": {"OBJECT_NAME": "STARLINK-36145", "OBJECT_ID": "2025-288AA", "EPOCH": "2025-12-18T22:00:00.999936", "MEAN_MOTION": 15.85272811, "ECCENTRICITY": 0.00019408, "INCLINATION": 43.0015, "RA_OF_ASC_NODE": 129.2271, "ARG_OF_PERICENTER": 281.217, "MEAN_ANOMALY": 84.4284, "EPHEMERIS_TYPE": 0, "CLASSIFICATION_TYPE": "U", "NORAD_CAT_ID": 66983, "ELEMENT_SET_NO": 999, "REV_AT_EPOCH": 282, "BSTAR": -0.0068377006, "MEAN_MOTION_DOT": -0.01488161, "MEAN_MOTION_DDOT": 0}, "tle": {"line1": "1 66983U 25288AA  25352.91667824 -.01488161  00000+0 -68377-2 0  9990", "line2": "2 66983  43.0015 129.2271 0001940 281.2170  84.4284 15.85272811  2828"}}, "geometry": {"type": "Point", "coordinates": [116.80293502418678, -9.29676100792564]}}, {"type": "Feature", "properties": {"norad_id": 66984, "name": "STARLINK-35591", "group": "last-30-days", "lat": -10.799722172357058, "lon": 115.1134352542364, "alt_km": 319.4756219263054, "timestamp": "2025-12-19T06:59:42.652784+00:00", "meta": {"OBJECT_NAME": "STARLINK-35591", "OBJECT_ID": "2025-288AB", "EPOCH": "2025-12-18T22:00:00.999936", "MEAN_MOTION": 15.85264771, "ECCENTRICITY": 0.00018442, "INCLINATION": 43.0014, "RA_OF_ASC_NODE": 129.2322, "ARG_OF_PERICENTER": 277.0141, "MEAN_ANOMALY": 86.3923, "EPHEMERIS_TYPE": 0, "CLASSIFICATION_TYPE": "U", "NORAD_CAT_ID": 66984, "ELEMENT_SET_NO": 999, "REV_AT_EPOCH": 282, "BSTAR": -0.0068062749, "MEAN_MOTION_DOT": -0.01481518, "MEAN_MOTION_DDOT": 0}, "tle": {"line1": "1 66984U 25288AB  25352.91667824 -.01481518  00000+0 -68063-2 0  9992", "line2": "2 66984  43.0014 129.2322 0001844 277.0141  86.3923 15.85264771  2826"}}, "geometry": {"type": "Point", "coordinates": [115.1134352542364, -10.799722172357058]}}, {"type": "Feature", "properties": {"norad_id": 66985, "name": "STARLINK-36103", "group": "last-30-days", "lat": -7.699621381069201, "lon": 118.57221660070029, "alt_km": 319.193666543516, "timestamp": "2025-12-19T06:59:42.652794+00:00", "meta": {"OBJECT_NAME": "STARLINK-36103", "OBJECT_ID": "2025-288AC", "EPOCH": "2025-12-18T22:00:00.999936", "MEAN_MOTION": 15.85273683, "ECCENTRICITY": 0.00017303, "INCLINATION": 43.0016, "RA_OF_ASC_NODE": 129.221, "ARG_OF_PERICENTER": 280.7396, "MEAN_ANOMALY": 87.2868, "EPHEMERIS_TYPE": 0, "CLASSIFICATION_TYPE": "U", "NORAD_CAT_ID": 66985, "ELEMENT_SET_NO": 999, "REV_AT_EPOCH": 282, "BSTAR": -0.0068914585, "MEAN_MOTION_DOT": -0.01498386, "MEAN_MOTION_DDOT": 0}, "tle": {"line1": "1 66985U 25288AC  25352.91667824 -.01498386  00000+0 -68915-2 0  9990", "line2": "2 66985  43.0016 129.2210 0001730 280.7396  87.2868 15.85273683  2822"}}, "geometry": {"type": "Point", "coordinates": [118.57221660070029, -7.699621381069201]}}, {"type": "Feature", "properties": {"norad_id": 66986, "name": "STARLINK-36135", "group": "last-30-days", "lat": -6.091632091973108, "lon": 120.33125476793467, "alt_km": 319.1339347833846, "timestamp": "2025-12-19T06:59:42.652804+00:00", "meta": {"OBJECT_NAME": "STARLINK-36135", "OBJECT_ID": "2025-288AD", "EPOCH": "2025-12-18T22:00:00.999936", "MEAN_MOTION": 15.85271924, "ECCENTRICITY": 0.00018235, "INCLINATION": 43.0013, "RA_OF_ASC_NODE": 129.2142, "ARG_OF_PERICENTER": 277.8237, "MEAN_ANOMALY": 92.5871, "EPHEMERIS_TYPE": 0, "CLASSIFICATION_TYPE": "U", "NORAD_CAT_ID": 66986, "ELEMENT_SET_NO": 999, "REV_AT_EPOCH": 282, "BSTAR": -0.0069323676, "MEAN_MOTION_DOT": -0.01506196, "MEAN_MOTION_DDOT": 0}, "tle": {"line1": "1 66986U 25288AD  25352.91667824 -.01506196  00000+0 -69324-2 0  9995", "line2": "2 66986  43.0013 129.2142 0001823 277.8237  92.5871 15.85271924  2827"}}, "geometry": {"type": "Point", "coordinates": [120.33125476793467, -6.091632091973108]}}]}